{
  "norad_id": 47276,
  "name": "ONEWEB-0130",
  "history": [
    {
      "epoch": "2026-04-10T11:47:25.533600Z",
      "apogee_km": 1215.129941301091,
      "perigee_km": 1212.3209521957933,
      "latitude_deg": -2.036595124748984e-06,
      "longitude_deg": -11.484636725427105,
      "height_km": 1216.2712372600988,
      "semi_major_axis_km": 7591.8624467484415,
      "eccentricity": 0.000185,
      "inclination_deg": 87.9014,
      "raan_deg": 4.0961,
      "arg_perigee_deg": 75.9086,
      "mean_anomaly_deg": 284.2248,
      "mean_motion_rev_day": 13.12442441
    },
    {
      "epoch": "2026-04-11T18:53:42.800352Z",
      "apogee_km": 1215.1391171062378,
      "perigee_km": 1212.3119075066552,
      "latitude_deg": 4.010903596813757e-05,
      "longitude_deg": -119.59091102096093,
      "height_km": 1216.2756179037797,
      "semi_major_axis_km": 7591.862512306447,
      "eccentricity": 0.0001862,
      "inclination_deg": 87.9011,
      "raan_deg": 3.8392,
      "arg_perigee_deg": 76.1828,
      "mean_anomaly_deg": 283.9508,
      "mean_motion_rev_day": 13.12442424
    },
    {
      "epoch": "2026-04-13T05:39:33.592608Z",
      "apogee_km": 1215.1565225098075,
      "perigee_km": 1212.2864963189086,
      "latitude_deg": -6.804274279556525e-05,
      "longitude_deg": 77.2326387100755,
      "height_km": 1216.2648315858623,
      "semi_major_axis_km": 7591.858509414357,
      "eccentricity": 0.00018902,
      "inclination_deg": 87.9013,
      "raan_deg": 3.5521,
      "arg_perigee_deg": 76.1153,
      "mean_anomaly_deg": 284.0185,
      "mean_motion_rev_day": 13.12443462
    },
    {
      "epoch": "2026-04-14T10:56:03.666336Z",
      "apogee_km": 1215.1309425596046,
      "perigee_km": 1212.3102637857219,
      "latitude_deg": 1.7489410636524348e-06,
      "longitude_deg": -3.3366471774125306,
      "height_km": 1216.2677553963133,
      "semi_major_axis_km": 7591.8576031726625,
      "eccentricity": 0.00018577,
      "inclination_deg": 87.9013,
      "raan_deg": 3.3104,
      "arg_perigee_deg": 76.0258,
      "mean_anomaly_deg": 284.1077,
      "mean_motion_rev_day": 13.12443697
    },
    {
      "epoch": "2026-04-15T05:13:52.425696Z",
      "apogee_km": 1215.1214352427223,
      "perigee_km": 1212.3185216462807,
      "latitude_deg": 3.6358170476324334e-05,
      "longitude_deg": 81.30766527993,
      "height_km": 1216.268135842323,
      "semi_major_axis_km": 7591.856978444501,
      "eccentricity": 0.0001846,
      "inclination_deg": 87.901,
      "raan_deg": 3.1593,
      "arg_perigee_deg": 75.9772,
      "mean_anomaly_deg": 284.1562,
      "mean_motion_rev_day": 13.12443859
    },
    {
      "epoch": "2026-04-16T10:30:22.616064Z",
      "apogee_km": 1215.133872229716,
      "perigee_km": 1212.317291211898,
      "latitude_deg": -4.5695063135517006e-05,
      "longitude_deg": 0.7377877808890805,
      "height_km": 1216.2672878757674,
      "semi_major_axis_km": 7591.862581720807,
      "eccentricity": 0.0001855,
      "inclination_deg": 87.9012,
      "raan_deg": 2.9175,
      "arg_perigee_deg": 75.7761,
      "mean_anomaly_deg": 284.3573,
      "mean_motion_rev_day": 13.12442406
    },
    {
      "epoch": "2026-04-17T17:36:39.595104Z",
      "apogee_km": 1215.118471767697,
      "perigee_km": 1212.3278558086922,
      "latitude_deg": 3.7184395510110884e-05,
      "longitude_deg": -107.36717859584189,
      "height_km": 1216.2699984898436,
      "semi_major_axis_km": 7591.860163788195,
      "eccentricity": 0.00018379,
      "inclination_deg": 87.9008,
      "raan_deg": 2.6607,
      "arg_perigee_deg": 75.8576,
      "mean_anomaly_deg": 284.2757,
      "mean_motion_rev_day": 13.12443033
    },
    {
      "epoch": "2026-04-18T10:04:41.617632Z",
      "apogee_km": 1215.101634951896,
      "perigee_km": 1212.3468521810555,
      "latitude_deg": 1.9491102345389623e-05,
      "longitude_deg": 4.811508820584471,
      "height_km": 1216.2702566657815,
      "semi_major_axis_km": 7591.861243566475,
      "eccentricity": 0.00018143,
      "inclination_deg": 87.9008,
      "raan_deg": 2.5241,
      "arg_perigee_deg": 75.6325,
      "mean_anomaly_deg": 284.5005,
      "mean_motion_rev_day": 13.12442753
    },
    {
      "epoch": "2026-04-19T09:51:51.274368Z",
      "apogee_km": 1215.094240452362,
      "perigee_km": 1212.3561594313305,
      "latitude_deg": 8.364340103417565e-05,
      "longitude_deg": 6.8477172821703505,
      "height_km": 1216.2627413261102,
      "semi_major_axis_km": 7591.862199941846,
      "eccentricity": 0.00018033,
      "inclination_deg": 87.9009,
      "raan_deg": 2.3274,
      "arg_perigee_deg": 75.1759,
      "mean_anomaly_deg": 284.957,
      "mean_motion_rev_day": 13.12442505
    },
    {
      "epoch": "2026-04-20T09:39:01.023552Z",
      "apogee_km": 1215.1026516116717,
      "perigee_km": 1212.3486275205432,
      "latitude_deg": -5.386561630324777e-06,
      "longitude_deg": 8.884232794756468,
      "height_km": 1216.2796393538395,
      "semi_major_axis_km": 7591.862639566108,
      "eccentricity": 0.00018138,
      "inclination_deg": 87.9005,
      "raan_deg": 2.1314,
      "arg_perigee_deg": 75.9713,
      "mean_anomaly_deg": 284.1617,
      "mean_motion_rev_day": 13.12442391
    },
    {
      "epoch": "2026-04-21T09:26:10.807296Z",
      "apogee_km": 1215.094046269869,
      "perigee_km": 1212.3591533266772,
      "latitude_deg": 2.3070072489231907e-05,
      "longitude_deg": 10.920207476013454,
      "height_km": 1216.2860457955967,
      "semi_major_axis_km": 7591.863599798273,
      "eccentricity": 0.00018012,
      "inclination_deg": 87.9003,
      "raan_deg": 1.935,
      "arg_perigee_deg": 76.1057,
      "mean_anomaly_deg": 284.0272,
      "mean_motion_rev_day": 13.12442142
    },
    {
      "epoch": "2026-04-22T03:43:59.861280Z",
      "apogee_km": 1215.0890163546592,
      "perigee_km": 1212.3641446783404,
      "latitude_deg": 5.578971705334484e-06,
      "longitude_deg": 95.5632838478383,
      "height_km": 1216.2848009711731,
      "semi_major_axis_km": 7591.8635805164995,
      "eccentricity": 0.00017946,
      "inclination_deg": 87.9,
      "raan_deg": 1.7839,
      "arg_perigee_deg": 75.9999,
      "mean_anomaly_deg": 284.1329,
      "mean_motion_rev_day": 13.12442147
    },
    {
      "epoch": "2026-04-23T10:50:17.140992Z",
      "apogee_km": 1215.0930700826002,
      "perigee_km": 1212.352864146069,
      "latitude_deg": -2.0714414486260657e-05,
      "longitude_deg": -12.54314750703363,
      "height_km": 1216.2830035281756,
      "semi_major_axis_km": 7591.859967114334,
      "eccentricity": 0.00018047,
      "inclination_deg": 87.8995,
      "raan_deg": 1.5269,
      "arg_perigee_deg": 76.1588,
      "mean_anomaly_deg": 283.9741,
      "mean_motion_rev_day": 13.12443084
    },
    {
      "epoch": "2026-04-24T16:06:47.467008Z",
      "apogee_km": 1215.04810923878,
      "perigee_km": 1212.3985499837454,
      "latitude_deg": 3.436454588468511e-05,
      "longitude_deg": -93.11419072530691,
      "height_km": 1216.3565211357777,
      "semi_major_axis_km": 7591.860329611262,
      "eccentricity": 0.0001745,
      "inclination_deg": 87.9002,
      "raan_deg": 1.2845,
      "arg_perigee_deg": 78.9155,
      "mean_anomaly_deg": 281.217,
      "mean_motion_rev_day": 13.1244299
    },
    {
      "epoch": "2026-04-25T17:43:43.792320Z",
      "apogee_km": 1215.0627227312698,
      "perigee_km": 1212.3752057199326,
      "latitude_deg": 2.5014165533236578e-05,
      "longitude_deg": -118.61217740217262,
      "height_km": 1216.2963320694705,
      "semi_major_axis_km": 7591.8559642256005,
      "eccentricity": 0.000177,
      "inclination_deg": 87.9001,
      "raan_deg": 1.0732,
      "arg_perigee_deg": 76.6402,
      "mean_anomaly_deg": 283.4924,
      "mean_motion_rev_day": 13.12444122
    },
    {
      "epoch": "2026-04-26T17:30:53.232192Z",
      "apogee_km": 1215.0582502195448,
      "perigee_km": 1212.3790843545585,
      "latitude_deg": -3.208163369192883e-05,
      "longitude_deg": -116.57496637731573,
      "height_km": 1216.3020726604234,
      "semi_major_axis_km": 7591.855667287051,
      "eccentricity": 0.00017645,
      "inclination_deg": 87.8997,
      "raan_deg": 0.8766,
      "arg_perigee_deg": 76.8625,
      "mean_anomaly_deg": 283.27,
      "mean_motion_rev_day": 13.12444199
    },
    {
      "epoch": "2026-04-27T15:28:15.703680Z",
      "apogee_km": 1215.052316544684,
      "perigee_km": 1212.3830204432415,
      "latitude_deg": 2.9090857636144697e-05,
      "longitude_deg": -87.00180548665949,
      "height_km": 1216.305497540804,
      "semi_major_axis_km": 7591.854668493962,
      "eccentricity": 0.0001758,
      "inclination_deg": 87.8996,
      "raan_deg": 0.6951,
      "arg_perigee_deg": 77.008,
      "mean_anomaly_deg": 283.1245,
      "mean_motion_rev_day": 13.12444458
    },
    {
      "epoch": "2026-04-28T17:05:11.857056Z",
      "apogee_km": 1215.050977511084,
      "perigee_km": 1212.3801637767328,
      "latitude_deg": -1.005635233333682e-05,
      "longitude_deg": -112.49947375398183,
      "height_km": 1216.311253177231,
      "semi_major_axis_km": 7591.852570643909,
      "eccentricity": 0.0001759,
      "inclination_deg": 87.8995,
      "raan_deg": 0.4834,
      "arg_perigee_deg": 77.361,
      "mean_anomaly_deg": 282.7715,
      "mean_motion_rev_day": 13.12445002
    },
    {
      "epoch": "2026-04-29T16:52:21.252000Z",
      "apogee_km": 1215.0490406676017,
      "perigee_km": 1212.3858181337673,
      "latitude_deg": 4.33111787365491e-05,
      "longitude_deg": -110.4620709929055,
      "height_km": 1216.314779653856,
      "semi_major_axis_km": 7591.854429400684,
      "eccentricity": 0.0001754,
      "inclination_deg": 87.8996,
      "raan_deg": 0.2868,
      "arg_perigee_deg": 77.3979,
      "mean_anomaly_deg": 282.7346,
      "mean_motion_rev_day": 13.1244452
    }
  ]
}